ORBCOMM FM20            
1 25416U 98046D   24361.48501661  .00002872  00000+0  10172-2 0  9993
2 25416  44.9942 278.7524 0000981   8.7179 351.3685 14.36503397379424
ORBCOMM FM16            
1 25417U 98046E   24361.46273111  .00003914  00000+0  13302-2 0  9994
2 25417  44.9934 272.5347 0003240 133.2869 226.8249 14.37923512379385
ORBCOMM FM15            
1 25418U 98046F   24361.18979678  .00003394  00000+0  11672-2 0  9995
2 25418  44.9969 278.4799 0002712 132.9006 227.2070 14.37603168379347
ORBCOMM FM14            
1 25419U 98046G   24361.45587795  .00003589  00000+0  12243-2 0  9992
2 25419  44.9957 275.9116 0001932 111.4515 248.6539 14.37899151379346
ORBCOMM FM13            
1 25420U 98046H   24361.50018432  .00003276  00000+0  11453-2 0  9992
2 25420  44.9973 282.1174 0003841 116.2667 243.8576 14.36856036378398
ORBCOMM FM21            
1 25475U 98053A   24361.47302485  .00003225  00000+0  11333-2 0  9991
2 25475  45.0094   7.0125 0001527 308.7970  51.2741 14.36640954372409
ORBCOMM FM22            
1 25476U 98053B   24361.41532658  .00003759  00000+0  12911-2 0  9998
2 25476  45.0086   3.4053 0001826  15.8753 344.2152 14.37470394372409
ORBCOMM FM23            
1 25477U 98053C   24361.49159290  .00003673  00000+0  12811-2 0  9998
2 25477  45.0092   9.2454 0001404 347.1754  12.9058 14.36747860372554
